IRIDIUM 39              
1 25042U 97069D   25296.13520164  .00000882  00000+0  22517-3 0  9997
2 25042  86.3938 156.3325 0015860 236.0367 123.9331 14.49400710467496
IRIDIUM 38              
1 25043U 97069E   25296.39920974  .00000623  00000+0  19860-3 0  9999
2 25043  86.4017 179.2666 0003756  62.1975 297.9603 14.38247699464384
IRIDIUM 42              
1 25077U 97077A   25296.63279252  .00000584  00000+0  19270-3 0  9999
2 25077  86.4026 185.4890 0002875  77.0606 283.0912 14.36474951459638
IRIDIUM 44              
1 25078U 97077B   25296.65726384  .00000601  00000+0  18323-3 0  9993
2 25078  86.4002 167.0860 0002049  31.9109 328.2214 14.40369547462197
IRIDIUM 45              
1 25104U 97082A   25296.42991993  .00030849  00000+0  95715-3 0  9991
2 25104  86.3580 345.4032 0103947 208.1240 151.4371 15.28012380471583
IRIDIUM 24              
1 25105U 97082B   25296.53361447  .00000772  00000+0  22813-3 0  9990
2 25105  86.3956  25.8409 0011946  24.2904 335.8857 14.42256030461717
IRIDIUM 51              
1 25262U 98018A   25296.18357657  .00077331  00000+0  11426-2 0  9995
2 25262  86.3807 351.9803 0068192 114.7907 246.0469 15.52324465466784
IRIDIUM 57              
1 25273U 98019B   25296.46247260  .00000607  00000+0  20246-3 0  9990
2 25273  86.3912  91.4803 0002126  87.0659 273.0781 14.35990607443194
